STARLINK-4420           
1 53654U 22105G   26068.67222330  .00000415  00000+0  33005-4 0  9994
2 53654  97.6024 311.1617 0002092  91.2741 268.8726 15.05644598193290
STRIX-5                 
1 65971U 25229A   26068.48916036  .00006129  00000+0  44900-3 0  9994
2 65971  41.9265 119.8574 0036941 120.2079 240.2413 15.03509399 21964
